[{"CCSDS_OMM_VERS":"2.0","COMMENT":"GENERATED VIA SPACE-TRACK.ORG API","CREATION_DATE":"2022-07-08T19:57:39","ORIGINATOR":"18 SPCS","OBJECT_NAME":"VANGUARD 1","OBJECT_ID":"1958-002B","CENTER_NAME":"EARTH","REF_FRAME":"TEME","TIME_SYSTEM":"UTC","MEAN_ELEMENT_THEORY":"SGP4","EPOCH":"2022-07-08T09:11:15.013824","MEAN_MOTION":"10.84972446","ECCENTRICITY":"0.18471580","INCLINATION":"34.2474","RA_OF_ASC_NODE":"74.9161","ARG_OF_PERICENTER":"131.7425","MEAN_ANOMALY":"245.6532","EPHEMERIS_TYPE":"0","CLASSIFICATION_TYPE":"U","NORAD_CAT_ID":"5","ELEMENT_SET_NO":"999","REV_AT_EPOCH":"28681","BSTAR":"0.00035943000000","MEAN_MOTION_DOT":"0.00000278","MEAN_MOTION_DDOT":"0.0000000000000","SEMIMAJOR_AXIS":"8618.983","PERIOD":"132.722","APOAPSIS":"3832.911","PERIAPSIS":"648.786","OBJECT_TYPE":"PAYLOAD","RCS_SIZE":"SMALL","COUNTRY_CODE":"US","LAUNCH_DATE":"1958-03-17","SITE":"AFETR","DECAY_DATE":null,"FILE":"3509949","GP_ID":"207645162","TLE_LINE0":"0 VANGUARD 1","TLE_LINE1":"1 00005U 58002B   22189.38281266  .00000278  00000-0  35943-3 0  9992","TLE_LINE2":"2 00005  34.2474  74.9161 1847158 131.7425 245.6532 10.84972446286813"},{"CCSDS_OMM_VERS":"2.0","COMMENT":"GENERATED VIA SPACE-TRACK.ORG API","CREATION_DATE":"2022-07-08T19:57:39","ORIGINATOR":"18 SPCS","OBJECT_NAME":"VANGUARD 2","OBJECT_ID":"1959-001A","CENTER_NAME":"EARTH","REF_FRAME":"TEME","TIME_SYSTEM":"UTC","MEAN_ELEMENT_THEORY":"SGP4","EPOCH":"2022-07-08T11:26:20.422464","MEAN_MOTION":"11.86148437","ECCENTRICITY":"0.14664420","INCLINATION":"32.8682","RA_OF_ASC_NODE":"115.0114","ARG_OF_PERICENTER":"172.2930","MEAN_ANOMALY":"190.3071","EPHEMERIS_TYPE":"0","CLASSIFICATION_TYPE":"U","NORAD_CAT_ID":"11","ELEMENT_SET_NO":"999","REV_AT_EPOCH":"36415","BSTAR":"0.00011274000000","MEAN_MOTION_DOT":"0.00000234","MEAN_MOTION_DDOT":"0.0000000000000","SEMIMAJOR_AXIS":"8121.617","PERIOD":"121.401","APOAPSIS":"2934.470","PERIAPSIS":"552.494","OBJECT_TYPE":"PAYLOAD","RCS_SIZE":"MEDIUM","COUNTRY_CODE":"US","LAUNCH_DATE":"1959-02-17","SITE":"AFETR","DECAY_DATE":null,"FILE":"3509949","GP_ID":"207644935","TLE_LINE0":"0 VANGUARD 2","TLE_LINE1":"1 00011U 59001A   22189.47662526  .00000234  00000-0  11274-3 0  9994","TLE_LINE2":"2 00011  32.8682 115.0114 1466442 172.2930 190.3071 11.86148437364150"}]